[{"OBJECT_NAME":"GLOBALSTAR M080","OBJECT_ID":"2011-080B","EPOCH":"2026-03-09T22:54:28.912320","MEAN_MOTION":12.62267152,"ECCENTRICITY":0.00010928,"INCLINATION":52.008,"RA_OF_ASC_NODE":321.0695,"ARG_OF_PERICENTER":66.5328,"MEAN_ANOMALY":47.2792,"EPHEMERIS_TYPE":0,"CLASSIFICATION_TYPE":"U","NORAD_CAT_ID":38041,"ELEMENT_SET_NO":999,"REV_AT_EPOCH":65635,"BSTAR":0.00012396235,"MEAN_MOTION_DOT":-8.2e-7,"MEAN_MOTION_DDOT":0},{"OBJECT_NAME":"DELTA 1 DEB","OBJECT_ID":"1973-086AC","EPOCH":"2026-03-09T22:10:46.890048","MEAN_MOTION":12.55564577,"ECCENTRICITY":0.00465565,"INCLINATION":101.5963,"RA_OF_ASC_NODE":45.114,"ARG_OF_PERICENTER":35.167,"MEAN_ANOMALY":36.22,"EPHEMERIS_TYPE":0,"CLASSIFICATION_TYPE":"U","NORAD_CAT_ID":7036,"ELEMENT_SET_NO":999,"REV_AT_EPOCH":38468,"BSTAR":0.0041854641,"MEAN_MOTION_DOT":6.44e-6,"MEAN_MOTION_DDOT":0}]
